{"type": "FeatureCollection", "features": [ {"type": "Feature", "properties": {"norad_id": 17070, "name": "POLAR BEAR", "group": "nnss", "lat": -68.63611628392975, "lon": -177.48851880400323, "alt_km": 1017.7662626176643, "timestamp": "2025-12-19T18:58:41.856596+00:00", "meta": {"OBJECT_NAME": "POLAR BEAR", "OBJECT_ID": "1986-088A", "EPOCH": "2025-12-19T02:24:07.959168", "MEAN_MOTION": 13.75252112, "ECCENTRICITY": 0.00412417, "INCLINATION": 89.617, "RA_OF_ASC_NODE": 183.5191, "ARG_OF_PERICENTER": 100.9243, "MEAN_ANOMALY": 13.2259, "EPHEMERIS_TYPE": 0, "CLASSIFICATION_TYPE": "U", "NORAD_CAT_ID": 17070, "ELEMENT_SET_NO": 999, "REV_AT_EPOCH": 96066, "BSTAR": 0.00010305896, "MEAN_MOTION_DOT": 1.11e-06, "MEAN_MOTION_DDOT": 0}, "tle": {"line1": "1 17070U 86088A   25353.10009212  .00000111  00000+0  10306-3 0  9993", "line2": "2 17070  89.6170 183.5191 0041241 100.9243  13.2259 13.75252112960665"}}, "geometry": {"type": "Point", "coordinates": [-177.48851880400323, -68.63611628392975]}}, {"type": "Feature", "properties": {"norad_id": 18361, "name": "OSCAR 27", "group": "nnss", "lat": 41.20144552870399, "lon": -100.13613009180678, "alt_km": 1054.171560400625, "timestamp": "2025-12-19T18:58:41.856607+00:00", "meta": {"OBJECT_NAME": "OSCAR 27", "OBJECT_ID": "1987-080A", "EPOCH": "2025-12-19T05:47:02.719680", "MEAN_MOTION": 13.44907986, "ECCENTRICITY": 0.01034335, "INCLINATION": 90.3741, "RA_OF_ASC_NODE": 79.5156, "ARG_OF_PERICENTER": 205.0332, "MEAN_ANOMALY": 154.5781, "EPHEMERIS_TYPE": 0, "CLASSIFICATION_TYPE": "U", "NORAD_CAT_ID": 18361, "ELEMENT_SET_NO": 999, "REV_AT_EPOCH": 87644, "BSTAR": 0.00014950841, "MEAN_MOTION_DOT": 9.9e-07, "MEAN_MOTION_DDOT": 0}, "tle": {"line1": "1 18361U 87080A   25353.24100370  .00000099  00000+0  14951-3 0  9997", "line2": "2 18361  90.3741  79.5156 0103433 205.0332 154.5781 13.44907986876448"}}, "geometry": {"type": "Point", "coordinates": [-100.13613009180678, 41.20144552870399]}}, {"type": "Feature", "properties": {"norad_id": 18362, "name": "OSCAR 29", "group": "nnss", "lat": 40.751376186049335, "lon": -99.68100458720434, "alt_km": 1085.4319925214404, "timestamp": "2025-12-19T18:58:41.856631+00:00", "meta": {"OBJECT_NAME": "OSCAR 29", "OBJECT_ID": "1987-080B", "EPOCH": "2025-12-19T06:02:44.034720", "MEAN_MOTION": 13.4444955, "ECCENTRICITY": 0.01042993, "INCLINATION": 90.3752, "RA_OF_ASC_NODE": 79.9753, "ARG_OF_PERICENTER": 228.2704, "MEAN_ANOMALY": 185.522, "EPHEMERIS_TYPE": 0, "CLASSIFICATION_TYPE": "U", "NORAD_CAT_ID": 18362, "ELEMENT_SET_NO": 999, "REV_AT_EPOCH": 87597, "BSTAR": 0.00013817433, "MEAN_MOTION_DOT": 9.1e-07, "MEAN_MOTION_DDOT": 0}, "tle": {"line1": "1 18362U 87080B   25353.25189855  .00000091  00000+0  13817-3 0  9996", "line2": "2 18362  90.3752  79.9753 0104299 228.2704 185.5220 13.44449550875976"}}, "geometry": {"type": "Point", "coordinates": [-99.68100458720434, 40.751376186049335]}}, {"type": "Feature", "properties": {"norad_id": 19070, "name": "OSCAR 23", "group": "nnss", "lat": -35.227993209260354, "lon": -163.61533989096466, "alt_km": 1077.020819101749, "timestamp": "2025-12-19T18:58:41.856643+00:00", "meta": {"OBJECT_NAME": "OSCAR 23", "OBJECT_ID": "1988-033A", "EPOCH": "2025-12-19T03:47:26.804832", "MEAN_MOTION": 13.27788264, "ECCENTRICITY": 0.01900588, "INCLINATION": 90.3206, "RA_OF_ASC_NODE": 16.5915, "ARG_OF_PERICENTER": 162.0987, "MEAN_ANOMALY": 268.1563, "EPHEMERIS_TYPE": 0, "CLASSIFICATION_TYPE": "U", "NORAD_CAT_ID": 19070, "ELEMENT_SET_NO": 999, "REV_AT_EPOCH": 82338, "BSTAR": 0.00020915497, "MEAN_MOTION_DOT": 1.13e-06, "MEAN_MOTION_DDOT": 0}, "tle": {"line1": "1 19070U 88033A   25353.15794913  .00000113  00000+0  20915-3 0  9990", "line2": "2 19070  90.3206  16.5915 0190058 162.0987 268.1563 13.27788264823385"}}, "geometry": {"type": "Point", "coordinates": [-163.61533989096466, -35.227993209260354]}}, {"type": "Feature", "properties": {"norad_id": 19071, "name": "OSCAR 32", "group": "nnss", "lat": -32.21648977474636, "lon": 16.946052538985494, "alt_km": 1302.838116807081, "timestamp": "2025-12-19T18:58:41.856653+00:00", "meta": {"OBJECT_NAME": "OSCAR 32", "OBJECT_ID": "1988-033B", "EPOCH": "2025-12-19T03:11:49.262784", "MEAN_MOTION": 13.27954999, "ECCENTRICITY": 0.01888457, "INCLINATION": 90.3211, "RA_OF_ASC_NODE": 16.7231, "ARG_OF_PERICENTER": 149.0701, "MEAN_ANOMALY": 277.1442, "EPHEMERIS_TYPE": 0, "CLASSIFICATION_TYPE": "U", "NORAD_CAT_ID": 19071, "ELEMENT_SET_NO": 999, "REV_AT_EPOCH": 82350, "BSTAR": 0.0001634943, "MEAN_MOTION_DOT": 9.1e-07, "MEAN_MOTION_DDOT": 0}, "tle": {"line1": "1 19071U 88033B   25353.13320906  .00000091  00000+0  16349-3 0  9997", "line2": "2 19071  90.3211  16.7231 0188845 149.0701 277.1442 13.27954999823505"}}, "geometry": {"type": "Point", "coordinates": [16.946052538985494, -32.21648977474636]}}, {"type": "Feature", "properties": {"norad_id": 19223, "name": "NOVA 2", "group": "nnss", "lat": 38.076732904093525, "lon": 78.27393305378683, "alt_km": 1153.4839995768534, "timestamp": "2025-12-19T18:58:41.856675+00:00", "meta": {"OBJECT_NAME": "NOVA 2", "OBJECT_ID": "1988-052A", "EPOCH": "2025-12-19T06:21:05.311584", "MEAN_MOTION": 13.22936436, "ECCENTRICITY": 0.00300327, "INCLINATION": 89.987, "RA_OF_ASC_NODE": 78.2644, "ARG_OF_PERICENTER": 358.9404, "MEAN_ANOMALY": 54.7754, "EPHEMERIS_TYPE": 0, "CLASSIFICATION_TYPE": "U", "NORAD_CAT_ID": 19223, "ELEMENT_SET_NO": 999, "REV_AT_EPOCH": 81034, "BSTAR": 0.00011474008, "MEAN_MOTION_DOT": 5.7e-07, "MEAN_MOTION_DDOT": 0}, "tle": {"line1": "1 19223U 88052A   25353.26464481  .00000057  00000+0  11474-3 0  9994", "line2": "2 19223  89.9870  78.2644 0030032 358.9404  54.7754 13.22936436810349"}}, "geometry": {"type": "Point", "coordinates": [78.27393305378683, 38.076732904093525]}}, {"type": "Feature", "properties": {"norad_id": 19419, "name": "OSCAR 25", "group": "nnss", "lat": -73.73936210895393, "lon": -159.84962607667853, "alt_km": 1044.349637770476, "timestamp": "2025-12-19T18:58:41.856690+00:00", "meta": {"OBJECT_NAME": "OSCAR 25", "OBJECT_ID": "1988-074A", "EPOCH": "2025-12-19T03:44:47.606784", "MEAN_MOTION": 13.4262451, "ECCENTRICITY": 0.00947802, "INCLINATION": 90.0341, "RA_OF_ASC_NODE": 20.2652, "ARG_OF_PERICENTER": 227.2545, "MEAN_ANOMALY": 200.1746, "EPHEMERIS_TYPE": 0, "CLASSIFICATION_TYPE": "U", "NORAD_CAT_ID": 19419, "ELEMENT_SET_NO": 999, "REV_AT_EPOCH": 82726, "BSTAR": 0.00015947183, "MEAN_MOTION_DOT": 1.01e-06, "MEAN_MOTION_DDOT": 0}, "tle": {"line1": "1 19419U 88074A   25353.15610656  .00000101  00000+0  15947-3 0  9999", "line2": "2 19419  90.0341  20.2652 0094780 227.2545 200.1746 13.42624510827268"}}, "geometry": {"type": "Point", "coordinates": [-159.84962607667853, -73.73936210895393]}}, {"type": "Feature", "properties": {"norad_id": 19420, "name": "OSCAR 31", "group": "nnss", "lat": 45.0055316594232, "lon": -159.34600961946717, "alt_km": 1088.721839096408, "timestamp": "2025-12-19T18:58:41.856701+00:00", "meta": {"OBJECT_NAME": "OSCAR 31", "OBJECT_ID": "1988-074B", "EPOCH": "2025-12-19T04:19:51.592800", "MEAN_MOTION": 13.42585711, "ECCENTRICITY": 0.00931406, "INCLINATION": 90.0356, "RA_OF_ASC_NODE": 20.6162, "ARG_OF_PERICENTER": 221.3224, "MEAN_ANOMALY": 206.6129, "EPHEMERIS_TYPE": 0, "CLASSIFICATION_TYPE": "U", "NORAD_CAT_ID": 19420, "ELEMENT_SET_NO": 999, "REV_AT_EPOCH": 82737, "BSTAR": 0.00015293711, "MEAN_MOTION_DOT": 9.7e-07, "MEAN_MOTION_DDOT": 0}, "tle": {"line1": "1 19420U 88074B   25353.18045825  .00000097  00000+0  15294-3 0  9993", "line2": "2 19420  90.0356  20.6162 0093140 221.3224 206.6129 13.42585711827371"}}, "geometry": {"type": "Point", "coordinates": [-159.34600961946717, 45.0055316594232]}}]}